{"type":"FeatureCollection","features":[{"type":"Feature","properties":{"layer":"region","id":"socal"},"geometry":{"type":"MultiPolygon","coordinates":[[[[-119.57941689316893,33.279035512745125],[-119.54711324723246,33.233505349143485],[-119.47532736737367,33.21546509564095],[-119.42866654546545,33.22835099099991],[-119.45738089740897,33.25498184140841],[-119.52916677726776,33.2850489305793],[-119.57941689316893,33.279035512745125]]],[[[-119.47891666136661,34.376913797327965],[-119.46097019140191,34.37433661825618],[-119.38918431154312,34.31849773836738],[-119.37482713557135,34.32107491743917],[-119.31380913769138,34.27554475383753],[-119.27791619776197,34.26695415693156],[-119.216898199882,34.145826740557396],[-119.13075514405143,34.10029657695576],[-119.08768361613616,34.09857845757457],[-118.94411185641856,34.045316756757565],[-118.85437950659505,34.034148980779804],[-118.8041293906939,34.00150471253712],[-118.74670068680686,34.03243086139861],[-118.66773621896218,34.03930333892338],[-118.54211092920929,34.038444279232785],[-118.4810929313293,33.995491294702944],[-118.44161069740696,33.94051147450474],[-118.39136058150581,33.8408605503955],[-118.39494987549875,33.80392098369983],[-118.4272535214352,33.77471295421954],[-118.41289634546345,33.742068685976854],[-118.35905693556936,33.736914327833276],[-118.32316399563996,33.71543783556835],[-118.25855670376703,33.703410999899994],[-118.18318152991529,33.72316937278372],[-118.17600294192941,33.76354517824178],[-118.11498494404944,33.74292774566745],[-118.06473482814827,33.711142537115364],[-118.00012753627536,33.65444459753597],[-117.92834165641656,33.60547819517195],[-117.8780915405154,33.59259229981299],[-117.78476989669896,33.541907778067774],[-117.7165733108331,33.460297107461066],[-117.68426966489665,33.46201522684226],[-117.63043025500255,33.430230018290175],[-117.59453731507315,33.387277033760334],[-117.50480496524965,33.33401533294332],[-117.36123320553205,33.16821681265812],[-117.3289295595956,33.121827589365886],[-117.28226873768736,33.01272700866008],[-117.24996509175091,32.87441839847398],[-117.28226873768736,32.822015757347565],[-117.25355438574385,32.786794310033095],[-117.2571436797368,32.72580107200071],[-117.24637579775796,32.66910313242132],[-117.19612568185681,32.68886150530505],[-117.16741132991329,32.67168031149311],[-117.13510768397683,32.6184186106761],[-117.12433980199802,32.5342307609976],[-116.10498030800306,32.6184186106761],[-116.10498030800306,33.07457930638306],[-116.0798552500525,33.07457930638306],[-116.08344454404543,33.425934719837194],[-117.03101815818158,33.42679377952779],[-116.85,33.4266296704806],[-116.85,34.033984270377054],[-116.93051792637925,34.034148980779804],[-116.93051792637925,34.00494095129951],[-117.21407215182151,34.00408189160891],[-116.95,34.004881928147555],[-116.95,34.32],[-117.64921200663773,34.32],[-117.66632319493195,34.558175392043914],[-117.66632319493195,34.82276577674776],[-118.85437950659505,34.81761141860418],[-118.88309385853859,34.79098056819568],[-118.97641550235502,34.79098056819568],[-118.97641550235502,34.8124570604606],[-119.24202325783257,34.81417517984179],[-119.24202325783257,34.857987224062235],[-119.27791619776197,34.85712816437164],[-119.27791619776197,34.87946371632716],[-119.38200572355723,34.87946371632716],[-119.38200572355723,34.90094020859208],[-119.44302372143721,34.90094020859208],[-119.44661301543015,34.40440370742707],[-119.47891666136661,34.376913797327965]]],[[[-119.45738089740897,34.01524966758667],[-119.42507725147252,33.99720941408413],[-119.36405925359253,34.00064565284652],[-119.36405925359253,34.026417443564426],[-119.40354148751487,34.014390607896075],[-119.43225583945838,34.02899462263622],[-119.45738089740897,34.01524966758667]]],[[[-118.6067182210822,33.03076726216261],[-118.58518245712457,33.0084317102071],[-118.5349323412234,32.906203607026065],[-118.48827151931519,32.844351309303086],[-118.4272535214352,32.80655268291682],[-118.38777128751286,32.825451996109955],[-118.35187834758347,32.822015757347565],[-118.49545010730107,32.933693517125164],[-118.57441457514574,33.034203500925],[-118.6067182210822,33.03076726216261]]],[[[-118.60312892708927,33.47833736096361],[-118.56005739917399,33.433666257052565],[-118.48827151931519,33.41992130200301],[-118.48827151931519,33.356350884898845],[-118.46673575535755,33.32628379572795],[-118.37341411154111,33.32027037789377],[-118.32675328963289,33.298793885628854],[-118.30880681966819,33.33573345232452],[-118.36623552355522,33.38813609345093],[-118.36982481754816,33.40961258571585],[-118.4451999913999,33.42851189890899],[-118.54570022320223,33.47404206251062],[-118.60312892708927,33.47833736096361]]]]}},{"type":"Feature","properties":{"layer":"region","id":"phx"},"geometry":{"type":"Polygon","coordinates":[[[-113.33404534545345,32.03855331952319],[-112.36493596735967,31.74131866657666],[-111.36711223732237,31.426043760127598],[-111.36711223732237,31.52139938578385],[-111.16252247972479,31.52139938578385],[-111.16252247972479,31.72585559214592],[-110.45184226912268,31.731009950289497],[-110.45184226912268,32.513613328423276],[-111.15893318573185,32.51103614935149],[-111.15893318573185,32.501586492754925],[-112.20341773767737,32.5067408508985],[-112.20341773767737,33.310820721297205],[-112.19264985569855,33.26529055769557],[-112.14957832778327,33.25412278171781],[-112.08497103591036,33.20429731966319],[-111.58246987689876,33.20515637935379],[-111.57888058290582,33.46545146560465],[-111.04048648396483,33.46631052529525],[-111.15175459774598,33.67763920918209],[-111.209183301633,33.633827164961644],[-111.22354047760477,33.60204195640956],[-111.26302271152711,33.622659388983884],[-111.33121929739296,33.687947925469246],[-111.33839788537885,33.718874074330735],[-111.38505870728707,33.749800223192224],[-111.38864800128,33.803061924009235],[-111.3707015313153,33.82367935658356],[-111.41377305923059,33.88467259461594],[-111.4065944712447,33.91989404193041],[-111.44966599915999,33.91989404193041],[-111.44607670516704,34.00150471253712],[-111.72604163661636,33.999786593155925],[-112.16393550375503,34.04789393582935],[-112.1962391496915,33.97487386212862],[-112.24289997159971,33.941370534195336],[-112.24289997159971,33.90529002719027],[-112.27520361753616,33.88209541554415],[-112.7454011306113,33.999786593155925],[-113.33404534545345,33.99892753346533],[-113.33404534545345,32.03855331952319]]]}},{"type":"Feature","properties":{"layer":"region","id":"lv"},"geometry":{"type":"Polygon","coordinates":[[[-115.4,36.3],[-115.27,36.36],[-115.08,36.33],[-114.93,36.22],[-114.9,36.1],[-114.96,36],[-115.08,35.94],[-115.25,35.96],[-115.38,36.07],[-115.4,36.3]]]}},{"type":"Feature","properties":{"layer":"region","id":"pinal"},"geometry":{"type":"Polygon","coordinates":[[[-112.1,33.08],[-111.85,33.12],[-111.58,33.1],[-111.42,32.92],[-111.4,32.75],[-111.58,32.62],[-111.85,32.66],[-112.05,32.78],[-112.15,32.95],[-112.1,33.08]]]}},{"type":"Feature","properties":{"layer":"region","id":"yuma"},"geometry":{"type":"Polygon","coordinates":[[[-114.82,32.76],[-114.75,32.86],[-114.6,32.86],[-114.45,32.78],[-114.25,32.8],[-114,32.8],[-113.85,32.74],[-114,32.66],[-114.35,32.67],[-114.52,32.6],[-114.7,32.45],[-114.81,32.5],[-114.82,32.76]]]}},{"type":"Feature","properties":{"layer":"region","id":"crit"},"geometry":{"type":"Polygon","coordinates":[[[-114.42,34.17],[-114.22,34.14],[-114.2,34],[-114.32,33.86],[-114.5,33.84],[-114.55,33.97],[-114.42,34.17]]]}},{"type":"Feature","properties":{"layer":"region","id":"pvid"},"geometry":{"type":"Polygon","coordinates":[[[-114.76,33.74],[-114.62,33.76],[-114.52,33.7],[-114.5,33.52],[-114.56,33.4],[-114.68,33.42],[-114.74,33.55],[-114.76,33.74]]]}},{"type":"Feature","properties":{"layer":"region","id":"iid"},"geometry":{"type":"Polygon","coordinates":[[[-115.8,32.71],[-115.55,32.69],[-115.32,32.69],[-115.25,32.85],[-115.3,33.03],[-115.42,33.22],[-115.53,33.27],[-115.62,33.15],[-115.72,33.08],[-115.82,32.95],[-115.86,32.82],[-115.8,32.71]]]}},{"type":"Feature","properties":{"layer":"region","id":"cvwd"},"geometry":{"type":"Polygon","coordinates":[[[-116.56,33.88],[-116.4,33.95],[-116.22,33.85],[-116.08,33.72],[-115.96,33.56],[-116,33.45],[-116.12,33.48],[-116.25,33.62],[-116.42,33.73],[-116.58,33.8],[-116.56,33.88]]]}},{"type":"Feature","properties":{"layer":"region","id":"mexico"},"geometry":{"type":"Polygon","coordinates":[[[-115.62,32.66],[-115.2,32.68],[-114.81,32.5],[-114.8,32.2],[-115.05,31.95],[-115.35,31.95],[-115.55,32.15],[-115.66,32.4],[-115.62,32.66]]]}},{"type":"Feature","properties":{"layer":"aqueduct","id":"cra","name":"Colorado River Aqueduct","to":"socal"},"geometry":{"type":"LineString","coordinates":[[-114.155,34.317],[-114.4,34.24],[-114.75,34.17],[-115.13,34.12],[-115.4,33.97],[-115.48,33.86],[-115.63,33.72],[-115.95,33.78],[-116.3,33.9],[-116.6,33.9],[-116.95,33.83],[-117.22,33.86],[-117.45,33.83]]}},{"type":"Feature","properties":{"layer":"aqueduct","id":"cap","name":"Central Arizona Project canal","to":"phx"},"geometry":{"type":"LineString","coordinates":[[-114.13,34.3],[-113.95,34.08],[-113.62,33.86],[-113.25,33.7],[-112.75,33.72],[-112.27,33.85],[-112,33.75],[-111.8,33.6],[-111.7,33.4],[-111.6,33.15],[-111.45,32.9],[-111.25,32.6],[-111.1,32.3],[-111.05,32.05]]}},{"type":"Feature","properties":{"layer":"aqueduct","id":"aac","name":"All-American Canal","to":"iid"},"geometry":{"type":"LineString","coordinates":[[-114.47,32.88],[-114.62,32.74],[-114.85,32.7],[-115.1,32.68],[-115.35,32.7],[-115.6,32.71]]}},{"type":"Feature","properties":{"layer":"aqueduct","id":"coachella","name":"Coachella Canal","to":"cvwd"},"geometry":{"type":"LineString","coordinates":[[-115,32.7],[-115.08,32.9],[-115.22,33.1],[-115.45,33.32],[-115.75,33.5],[-116,33.62],[-116.18,33.72]]}},{"type":"Feature","properties":{"layer":"aqueduct","id":"snwa","name":"SNWA intake pipelines","to":"lv"},"geometry":{"type":"LineString","coordinates":[[-114.79,36.075],[-114.88,36.06],[-114.97,36.07],[-115.08,36.12]]}},{"type":"Feature","properties":{"layer":"aqueduct","id":"river","name":"Colorado River below Hoover Dam","to":null},"geometry":{"type":"LineString","coordinates":[[-114.738,36.016],[-114.74,35.85],[-114.67,35.5],[-114.571,35.197],[-114.58,34.99],[-114.6,34.84],[-114.49,34.72],[-114.36,34.5],[-114.14,34.296],[-114.29,34.15],[-114.52,33.95],[-114.53,33.61],[-114.5,33.3],[-114.62,33.03],[-114.465,32.883],[-114.62,32.73],[-114.73,32.7],[-114.8,32.5]]}},{"type":"Feature","properties":{"layer":"poi","id":"hoover","kind":"dam","name":"Hoover Dam"},"geometry":{"type":"Point","coordinates":[-114.7377,36.0161]}},{"type":"Feature","properties":{"layer":"poi","id":"davis","kind":"dam","name":"Davis Dam"},"geometry":{"type":"Point","coordinates":[-114.571,35.197]}},{"type":"Feature","properties":{"layer":"poi","id":"parker","kind":"dam","name":"Parker Dam"},"geometry":{"type":"Point","coordinates":[-114.1397,34.2961]}},{"type":"Feature","properties":{"layer":"poi","id":"imperial","kind":"dam","name":"Imperial Dam"},"geometry":{"type":"Point","coordinates":[-114.465,32.883]}},{"type":"Feature","properties":{"layer":"poi","id":"intakes","kind":"intake","name":"SNWA Intakes 1–3"},"geometry":{"type":"Point","coordinates":[-114.793,36.076]}},{"type":"Feature","properties":{"layer":"poi","id":"wilmer","kind":"intake","name":"CAP Mark Wilmer Pumping Plant"},"geometry":{"type":"Point","coordinates":[-114.13,34.302]}},{"type":"Feature","properties":{"layer":"poi","id":"whitsett","kind":"intake","name":"MWD Whitsett Intake"},"geometry":{"type":"Point","coordinates":[-114.156,34.317]}},{"type":"Feature","properties":{"layer":"basin","name":"Boulder Basin"},"geometry":{"type":"Point","coordinates":[-114.76,36.07]}},{"type":"Feature","properties":{"layer":"basin","name":"Virgin Basin"},"geometry":{"type":"Point","coordinates":[-114.36,36.13]}},{"type":"Feature","properties":{"layer":"basin","name":"Overton Arm"},"geometry":{"type":"Point","coordinates":[-114.4,36.38]}},{"type":"Feature","properties":{"layer":"basin","name":"Gregg Basin"},"geometry":{"type":"Point","coordinates":[-114.13,36.06]}},{"type":"Feature","properties":{"layer":"basin","name":"Las Vegas Bay"},"geometry":{"type":"Point","coordinates":[-114.89,36.12]}}]}